UNKNOWN                 
1 82043U          26091.63462105  .00003775  00000+0  10294-2 0  9991
2 82043  97.9425 236.2418 0230805 112.8609 249.7126 14.33290390589586
UNKNOWN                 
1 82051U          26086.99838875  .00004131  00000+0  13400-2 0  9993
2 82051  98.7384 179.1211 0088090 308.2609  51.0674 14.37275987587525
UNKNOWN                 
1 82073U          26092.15171066  .00001851  00000+0  47589-3 0  9996
2 82073  97.7354 162.7409 0204018 310.6272  47.7329 14.39572883591009
UNKNOWN                 
1 82139U          26091.47021751  .00002268  00000+0  11326-2 0  9990
2 82139  99.0105 165.6468 0083690  93.0113 268.0641 14.16025848495642
UNKNOWN                 
1 82162U          26092.26333178  .00003939  00000+0  57709-2 0  9994
2 82162 100.4705  28.1397 0058626 327.4301  32.3222 13.54520147519264
UNKNOWN                 
1 82180U          26092.66405853  .00015842  00000+0  20553-2 0  9991
2 82180  65.6536 333.6839 0291976 159.9013 201.3878 14.55317895617864
UNKNOWN                 
1 82189U          26089.05693445  .00000352  00000+0  13191-3 0  9996
2 82189  74.0348 211.5250 0016225  13.0439 347.1129 14.35296236647812
UNKNOWN                 
1 82199U          26092.42646982  .00000583  00000+0  49093-3 0  9992
2 82199  82.9676 150.6806 0039176  84.1036 294.5145 13.85913308625029
UNKNOWN                 
1 82205U          26092.81020664  .00001440  00000+0  41976-3 0  9991
2 82205  63.0061 289.8316 0497102 304.4472  51.0539 13.94105945623486
UNKNOWN                 
1 82223U          26092.15871215  .00003308  00000+0  17752-2 0  9993
2 82223  99.3145 347.4220 0070123  36.8197 323.7760 14.12465804464376
UNKNOWN                 
1 82250U          26088.22388341  .00004249  00000+0  21786-2 0  9996
2 82250  98.9064 358.3766 0068895 251.1438 262.2712 14.14724282631684
UNKNOWN                 
1 82272U          26091.00175334  .00000998  00000+0  32234-2 0  9993
2 82272  67.5293   2.8586 0754916  35.9129 329.0267 12.33660915285410
