CCSDS_OMM_VERS = 2.0
CREATION_DATE  = 
ORIGINATOR     = 

OBJECT_NAME    = UNKNOWN
OBJECT_ID      = 
CENTER_NAME    = EARTH
REF_FRAME      = TEME
TIME_SYSTEM    = UTC
MEAN_ELEMENT_THEORY = SGP/SGP4

EPOCH          = 2026-04-01T15:13:51.258720
MEAN_MOTION    = 14.33290390
ECCENTRICITY   = .0230805
INCLINATION    = 97.9425
RA_OF_ASC_NODE = 236.2418
ARG_OF_PERICENTER = 112.8609
MEAN_ANOMALY   = 249.7126

EPHEMERIS_TYPE = 0
CLASSIFICATION_TYPE = U
NORAD_CAT_ID   = 82043
ELEMENT_SET_NO = 999
REV_AT_EPOCH   = 58958
BSTAR          = .10294E-2
MEAN_MOTION_DOT = .3775E-4
MEAN_MOTION_DDOT = 0

CCSDS_OMM_VERS = 2.0
CREATION_DATE  = 
ORIGINATOR     = 

OBJECT_NAME    = UNKNOWN
OBJECT_ID      = 
CENTER_NAME    = EARTH
REF_FRAME      = TEME
TIME_SYSTEM    = UTC
MEAN_ELEMENT_THEORY = SGP/SGP4

EPOCH          = 2026-03-27T23:57:40.788000
MEAN_MOTION    = 14.37275987
ECCENTRICITY   = .008809
INCLINATION    = 98.7384
RA_OF_ASC_NODE = 179.1211
ARG_OF_PERICENTER = 308.2609
MEAN_ANOMALY   = 51.0674

EPHEMERIS_TYPE = 0
CLASSIFICATION_TYPE = U
NORAD_CAT_ID   = 82051
ELEMENT_SET_NO = 999
REV_AT_EPOCH   = 58752
BSTAR          = .134E-2
MEAN_MOTION_DOT = .4131E-4
MEAN_MOTION_DDOT = 0

CCSDS_OMM_VERS = 2.0
CREATION_DATE  = 
ORIGINATOR     = 

OBJECT_NAME    = UNKNOWN
OBJECT_ID      = 
CENTER_NAME    = EARTH
REF_FRAME      = TEME
TIME_SYSTEM    = UTC
MEAN_ELEMENT_THEORY = SGP/SGP4

EPOCH          = 2026-04-02T03:38:27.801024
MEAN_MOTION    = 14.39572883
ECCENTRICITY   = .0204018
INCLINATION    = 97.7354
RA_OF_ASC_NODE = 162.7409
ARG_OF_PERICENTER = 310.6272
MEAN_ANOMALY   = 47.7329

EPHEMERIS_TYPE = 0
CLASSIFICATION_TYPE = U
NORAD_CAT_ID   = 82073
ELEMENT_SET_NO = 999
REV_AT_EPOCH   = 59100
BSTAR          = .47589E-3
MEAN_MOTION_DOT = .1851E-4
MEAN_MOTION_DDOT = 0

CCSDS_OMM_VERS = 2.0
CREATION_DATE  = 
ORIGINATOR     = 

OBJECT_NAME    = UNKNOWN
OBJECT_ID      = 
CENTER_NAME    = EARTH
REF_FRAME      = TEME
TIME_SYSTEM    = UTC
MEAN_ELEMENT_THEORY = SGP/SGP4

EPOCH          = 2026-04-01T11:17:06.792864
MEAN_MOTION    = 14.16025848
ECCENTRICITY   = .008369
INCLINATION    = 99.0105
RA_OF_ASC_NODE = 165.6468
ARG_OF_PERICENTER = 93.0113
MEAN_ANOMALY   = 268.0641

EPHEMERIS_TYPE = 0
CLASSIFICATION_TYPE = U
NORAD_CAT_ID   = 82139
ELEMENT_SET_NO = 999
REV_AT_EPOCH   = 49564
BSTAR          = .11326E-2
MEAN_MOTION_DOT = .2268E-4
MEAN_MOTION_DDOT = 0

CCSDS_OMM_VERS = 2.0
CREATION_DATE  = 
ORIGINATOR     = 

OBJECT_NAME    = UNKNOWN
OBJECT_ID      = 
CENTER_NAME    = EARTH
REF_FRAME      = TEME
TIME_SYSTEM    = UTC
MEAN_ELEMENT_THEORY = SGP/SGP4

EPOCH          = 2026-04-02T06:19:11.865792
MEAN_MOTION    = 13.54520147
ECCENTRICITY   = .0058626
INCLINATION    = 100.4705
RA_OF_ASC_NODE = 28.1397
ARG_OF_PERICENTER = 327.4301
MEAN_ANOMALY   = 32.3222

EPHEMERIS_TYPE = 0
CLASSIFICATION_TYPE = U
NORAD_CAT_ID   = 82162
ELEMENT_SET_NO = 999
REV_AT_EPOCH   = 51926
BSTAR          = .57709E-2
MEAN_MOTION_DOT = .3939E-4
MEAN_MOTION_DDOT = 0

CCSDS_OMM_VERS = 2.0
CREATION_DATE  = 
ORIGINATOR     = 

OBJECT_NAME    = UNKNOWN
OBJECT_ID      = 
CENTER_NAME    = EARTH
REF_FRAME      = TEME
TIME_SYSTEM    = UTC
MEAN_ELEMENT_THEORY = SGP/SGP4

EPOCH          = 2026-04-02T15:56:14.656992
MEAN_MOTION    = 14.55317895
ECCENTRICITY   = .0291976
INCLINATION    = 65.6536
RA_OF_ASC_NODE = 333.6839
ARG_OF_PERICENTER = 159.9013
MEAN_ANOMALY   = 201.3878

EPHEMERIS_TYPE = 0
CLASSIFICATION_TYPE = U
NORAD_CAT_ID   = 82180
ELEMENT_SET_NO = 999
REV_AT_EPOCH   = 61786
BSTAR          = .20553E-2
MEAN_MOTION_DOT = .15842E-3
MEAN_MOTION_DDOT = 0

CCSDS_OMM_VERS = 2.0
CREATION_DATE  = 
ORIGINATOR     = 

OBJECT_NAME    = UNKNOWN
OBJECT_ID      = 
CENTER_NAME    = EARTH
REF_FRAME      = TEME
TIME_SYSTEM    = UTC
MEAN_ELEMENT_THEORY = SGP/SGP4

EPOCH          = 2026-03-30T01:21:59.136480
MEAN_MOTION    = 14.35296236
ECCENTRICITY   = .0016225
INCLINATION    = 74.0348
RA_OF_ASC_NODE = 211.5250
ARG_OF_PERICENTER = 13.0439
MEAN_ANOMALY   = 347.1129

EPHEMERIS_TYPE = 0
CLASSIFICATION_TYPE = U
NORAD_CAT_ID   = 82189
ELEMENT_SET_NO = 999
REV_AT_EPOCH   = 64781
BSTAR          = .13191E-3
MEAN_MOTION_DOT = .352E-5
MEAN_MOTION_DDOT = 0

CCSDS_OMM_VERS = 2.0
CREATION_DATE  = 
ORIGINATOR     = 

OBJECT_NAME    = UNKNOWN
OBJECT_ID      = 
CENTER_NAME    = EARTH
REF_FRAME      = TEME
TIME_SYSTEM    = UTC
MEAN_ELEMENT_THEORY = SGP/SGP4

EPOCH          = 2026-04-02T10:14:06.992448
MEAN_MOTION    = 13.85913308
ECCENTRICITY   = .0039176
INCLINATION    = 82.9676
RA_OF_ASC_NODE = 150.6806
ARG_OF_PERICENTER = 84.1036
MEAN_ANOMALY   = 294.5145

EPHEMERIS_TYPE = 0
CLASSIFICATION_TYPE = U
NORAD_CAT_ID   = 82199
ELEMENT_SET_NO = 999
REV_AT_EPOCH   = 62502
BSTAR          = .49093E-3
MEAN_MOTION_DOT = .583E-5
MEAN_MOTION_DDOT = 0

CCSDS_OMM_VERS = 2.0
CREATION_DATE  = 
ORIGINATOR     = 

OBJECT_NAME    = UNKNOWN
OBJECT_ID      = 
CENTER_NAME    = EARTH
REF_FRAME      = TEME
TIME_SYSTEM    = UTC
MEAN_ELEMENT_THEORY = SGP/SGP4

EPOCH          = 2026-04-02T19:26:41.853696
MEAN_MOTION    = 13.94105945
ECCENTRICITY   = .0497102
INCLINATION    = 63.0061
RA_OF_ASC_NODE = 289.8316
ARG_OF_PERICENTER = 304.4472
MEAN_ANOMALY   = 51.0539

EPHEMERIS_TYPE = 0
CLASSIFICATION_TYPE = U
NORAD_CAT_ID   = 82205
ELEMENT_SET_NO = 999
REV_AT_EPOCH   = 62348
BSTAR          = .41976E-3
MEAN_MOTION_DOT = .144E-4
MEAN_MOTION_DDOT = 0

CCSDS_OMM_VERS = 2.0
CREATION_DATE  = 
ORIGINATOR     = 

OBJECT_NAME    = UNKNOWN
OBJECT_ID      = 
CENTER_NAME    = EARTH
REF_FRAME      = TEME
TIME_SYSTEM    = UTC
MEAN_ELEMENT_THEORY = SGP/SGP4

EPOCH          = 2026-04-02T03:48:32.729760
MEAN_MOTION    = 14.12465804
ECCENTRICITY   = .0070123
INCLINATION    = 99.3145
RA_OF_ASC_NODE = 347.4220
ARG_OF_PERICENTER = 36.8197
MEAN_ANOMALY   = 323.7760

EPHEMERIS_TYPE = 0
CLASSIFICATION_TYPE = U
NORAD_CAT_ID   = 82223
ELEMENT_SET_NO = 999
REV_AT_EPOCH   = 46437
BSTAR          = .17752E-2
MEAN_MOTION_DOT = .3308E-4
MEAN_MOTION_DDOT = 0

CCSDS_OMM_VERS = 2.0
CREATION_DATE  = 
ORIGINATOR     = 

OBJECT_NAME    = UNKNOWN
OBJECT_ID      = 
CENTER_NAME    = EARTH
REF_FRAME      = TEME
TIME_SYSTEM    = UTC
MEAN_ELEMENT_THEORY = SGP/SGP4

EPOCH          = 2026-03-29T05:22:23.526624
MEAN_MOTION    = 14.14724282
ECCENTRICITY   = .0068895
INCLINATION    = 98.9064
RA_OF_ASC_NODE = 358.3766
ARG_OF_PERICENTER = 251.1438
MEAN_ANOMALY   = 262.2712

EPHEMERIS_TYPE = 0
CLASSIFICATION_TYPE = U
NORAD_CAT_ID   = 82250
ELEMENT_SET_NO = 999
REV_AT_EPOCH   = 63168
BSTAR          = .21786E-2
MEAN_MOTION_DOT = .4249E-4
MEAN_MOTION_DDOT = 0

CCSDS_OMM_VERS = 2.0
CREATION_DATE  = 
ORIGINATOR     = 

OBJECT_NAME    = UNKNOWN
OBJECT_ID      = 
CENTER_NAME    = EARTH
REF_FRAME      = TEME
TIME_SYSTEM    = UTC
MEAN_ELEMENT_THEORY = SGP/SGP4

EPOCH          = 2026-04-01T00:02:31.488576
MEAN_MOTION    = 12.33660915
ECCENTRICITY   = .0754916
INCLINATION    = 67.5293
RA_OF_ASC_NODE = 2.8586
ARG_OF_PERICENTER = 35.9129
MEAN_ANOMALY   = 329.0267

EPHEMERIS_TYPE = 0
CLASSIFICATION_TYPE = U
NORAD_CAT_ID   = 82272
ELEMENT_SET_NO = 999
REV_AT_EPOCH   = 28541
BSTAR          = .32234E-2
MEAN_MOTION_DOT = .998E-5
MEAN_MOTION_DDOT = 0

